SAR-LUPE 2              
1 31797U 07030A   26165.82878420  .00010741  00000+0  19651-3 0  9993
2 31797  98.1040 269.9689 0006249 142.3654 217.8033 15.49555912 56579
SAPPHIRE                
1 39088U 13009C   26165.79155147  .00000092  00000+0  47169-4 0  9991
2 39088  98.4259 345.3042 0010019 254.5928 105.4151 14.35239943696230
PRAETORIAN SDA_602      
1 65565U 25203A   26165.85575564  .00000054  00000+0  37477-4 0  9994
2 65565  81.3032  12.9286 0005643 190.5611 169.5428 13.84342493 38372
PRAETORIAN SDA_603      
1 65566U 25203B   26165.66481006  .00000192  00000+0  16269-3 0  9999
2 65566  81.3036  13.0209 0009244 194.7144 165.3745 13.83904972 38351
PRAETORIAN SDA_604      
1 65567U 25203C   26165.82765081  .00000056  00000+0  40268-4 0  9992
2 65567  81.3054  13.2783 0005137 198.3388 161.7583 13.83047208 38358
PRAETORIAN SDA_605      
1 65568U 25203D   26165.86596578  .00000048  00000+0  33141-4 0  9993
2 65568  81.3019  12.9082 0007953 189.4612 170.6396 13.83433977 38372
PRAETORIAN SDA_606      
1 65569U 25203E   26165.63149367  .00000066  00000+0  49241-4 0  9997
2 65569  81.3055  13.3457 0005582 187.9909 172.1159 13.83407153 38339
PRAETORIAN SDA_607      
1 65570U 25203F   26165.85798231  .00000185  00000+0  15527-3 0  9994
2 65570  81.3039  12.8030 0008530 194.1667 165.9251 13.84284112 38388
PRAETORIAN SDA_608      
1 65571U 25203G   26165.83459455  .00000051  00000+0  35717-4 0  9991
2 65571  81.3007  12.9856 0005652 197.4712 162.6251 13.83816522 38367
PRAETORIAN SDA_609      
1 65572U 25203H   26165.84017184  .00000154  00000+0  12728-3 0  9992
2 65572  81.3052  12.9646 0006518 190.4851 169.6170 13.84213130 38379
PRAETORIAN SDA_610      
1 65573U 25203J   26165.81440926  .00000047  00000+0  31492-4 0  9995
2 65573  81.3008  12.9624 0006313 195.0907 165.0062 13.83851645 38360
PRAETORIAN SDA_611      
1 65574U 25203K   26165.81426022  .00000138  00000+0  11486-3 0  9998
2 65574  81.3008  13.1268 0005199 201.8219 158.2716 13.83308455 38356
PRAETORIAN SDA_612      
1 65575U 25203L   26165.80683529  .00000221  00000+0  18480-3 0  9999
2 65575  81.3029  12.7254 0008959 193.4754 166.6166 13.85038867 38381
PRAETORIAN SDA_613      
1 65576U 25203M   26165.82007318  .00000047  00000+0  32577-4 0  9998
2 65576  81.3000  13.1161 0005431 190.4683 169.6361 13.82764791 38359
PRAETORIAN SDA_614      
1 65577U 25203N   26165.86781587  .00000032  00000+0  17458-4 0  9995
2 65577  81.3015  12.7460 0006867 190.2186 169.8833 13.84777840 38394
PRAETORIAN SDA_615      
1 65578U 25203P   26165.84413087  .00000181  00000+0  15138-3 0  9998
2 65578  81.3023  12.7304 0008774 191.8864 168.2087 13.84435862 38388
PRAETORIAN SDA_616      
1 65579U 25203Q   26165.81340295  .00000196  00000+0  16769-3 0  9993
2 65579  81.3064  13.2708 0005121 199.3018 160.7945 13.83267129 38350
PRAETORIAN SDA_617      
1 65580U 25203R   26165.83480441  .00000010  00000+0 -16277-5 0  9997
2 65580  81.3030  13.0822 0007157 190.9585 169.1416 13.83149775 38360
PRAETORIAN SDA_618      
1 65581U 25203S   26165.81057632  .00000134  00000+0  10864-3 0  9998
2 65581  81.3020  12.6921 0009467 194.4039 165.6849 13.84669177 38381
PRAETORIAN SDA_619      
1 65582U 25203T   26165.84504137  .00000151  00000+0  12547-3 0  9998
2 65582  81.3044  12.9534 0007916 192.3035 167.7930 13.83805086 39005
PRAETORIAN SDA_620      
1 65583U 25203U   26165.87271272  .00000248  00000+0  21416-3 0  9995
2 65583  81.3029  12.9486 0007455 186.8850 173.2205 13.83618275 38374
PRAETORIAN SDA_621      
1 65584U 25203V   26165.84680661  .00000049  00000+0  33220-4 0  9995
2 65584  81.3021  12.8911 0007228 185.0759 175.0326 13.83800933 38374
PRAETORIAN SDA_601      
1 65585U 25203W   26165.81636681  .00000240  00000+0  20813-3 0  9992
2 65585  81.3038  13.2135 0005115 202.8552 157.2377 13.83167060 38351
